<?xml version="1.0" encoding="utf-8"?>
<kml xmlns="http://www.opengis.net/kml/2.2">
<Document>
<name>21/1256494/1258799.kml</name>
<description></description>
<Style><ListStyle id="hideChildren">
<listItemType>checkHideChildren</listItemType>
</ListStyle>
</Style>
<Folder>
<Region>
<LatLonAltBox>
<north>33.913733814316252</north>
<south>33.913591356099232</south>
<east>35.691661834716811</east>
<west>35.691490173339851</west>
</LatLonAltBox>
<Lod>
<minLodPixels>128</minLodPixels>
<maxLodPixels>-1</maxLodPixels>
</Lod>
</Region>
<GroundOverlay>
<drawOrder>42</drawOrder>
<Icon>
<href>../../21/1256494/1258799.png</href>
</Icon>
<LatLonBox>
<north>33.913733814316252</north>
<south>33.913591356099232</south>
<east>35.691661834716811</east>
<west>35.691490173339851</west>
</LatLonBox>
</GroundOverlay>
<NetworkLink>
<name>22/2512988/2517598.kml</name>
<Region>
<LatLonAltBox>
<north>33.913662585237510</north>
<south>33.913591356099232</south>
<east>35.691576004028327</east>
<west>35.691490173339851</west>
</LatLonAltBox>
<Lod>
<minLodPixels>128</minLodPixels>
<maxLodPixels>-1</maxLodPixels>
</Lod>
</Region>
<Link>
<href>../../22/2512988/2517598.kml</href>
<viewRefreshMode>onRegion</viewRefreshMode>
</Link>
</NetworkLink>
<NetworkLink>
<name>22/2512989/2517598.kml</name>
<Region>
<LatLonAltBox>
<north>33.913662585237510</north>
<south>33.913591356099232</south>
<east>35.691661834716811</east>
<west>35.691576004028327</west>
</LatLonAltBox>
<Lod>
<minLodPixels>128</minLodPixels>
<maxLodPixels>-1</maxLodPixels>
</Lod>
</Region>
<Link>
<href>../../22/2512989/2517598.kml</href>
<viewRefreshMode>onRegion</viewRefreshMode>
</Link>
</NetworkLink>
<NetworkLink>
<name>22/2512988/2517599.kml</name>
<Region>
<LatLonAltBox>
<north>33.913733814316252</north>
<south>33.913662585237510</south>
<east>35.691576004028327</east>
<west>35.691490173339851</west>
</LatLonAltBox>
<Lod>
<minLodPixels>128</minLodPixels>
<maxLodPixels>-1</maxLodPixels>
</Lod>
</Region>
<Link>
<href>../../22/2512988/2517599.kml</href>
<viewRefreshMode>onRegion</viewRefreshMode>
</Link>
</NetworkLink>
<NetworkLink>
<name>22/2512989/2517599.kml</name>
<Region>
<LatLonAltBox>
<north>33.913733814316252</north>
<south>33.913662585237510</south>
<east>35.691661834716811</east>
<west>35.691576004028327</west>
</LatLonAltBox>
<Lod>
<minLodPixels>128</minLodPixels>
<maxLodPixels>-1</maxLodPixels>
</Lod>
</Region>
<Link>
<href>../../22/2512989/2517599.kml</href>
<viewRefreshMode>onRegion</viewRefreshMode>
</Link>
</NetworkLink>

</Folder>

</Document>
</kml>
