<?xml version="1.0" encoding="utf-8"?>
<kml xmlns="http://www.opengis.net/kml/2.2">
<Document>
<name>17/78531/78674.kml</name>
<description></description>
<Style><ListStyle id="hideChildren">
<listItemType>checkHideChildren</listItemType>
</ListStyle>
</Style>
<Folder>
<Region>
<LatLonAltBox>
<north>33.913733814316252</north>
<south>33.911454454267634</south>
<east>35.694580078124986</east>
<west>35.691833496093743</west>
</LatLonAltBox>
<Lod>
<minLodPixels>128</minLodPixels>
<maxLodPixels>-1</maxLodPixels>
</Lod>
</Region>
<GroundOverlay>
<drawOrder>34</drawOrder>
<Icon>
<href>../../17/78531/78674.png</href>
</Icon>
<LatLonBox>
<north>33.913733814316252</north>
<south>33.911454454267634</south>
<east>35.694580078124986</east>
<west>35.691833496093743</west>
</LatLonBox>
</GroundOverlay>
<NetworkLink>
<name>18/157062/157348.kml</name>
<Region>
<LatLonAltBox>
<north>33.912594141912230</north>
<south>33.911454454267634</south>
<east>35.693206787109368</east>
<west>35.691833496093743</west>
</LatLonAltBox>
<Lod>
<minLodPixels>128</minLodPixels>
<maxLodPixels>-1</maxLodPixels>
</Lod>
</Region>
<Link>
<href>../../18/157062/157348.kml</href>
<viewRefreshMode>onRegion</viewRefreshMode>
</Link>
</NetworkLink>
<NetworkLink>
<name>18/157062/157349.kml</name>
<Region>
<LatLonAltBox>
<north>33.913733814316252</north>
<south>33.912594141912230</south>
<east>35.693206787109368</east>
<west>35.691833496093743</west>
</LatLonAltBox>
<Lod>
<minLodPixels>128</minLodPixels>
<maxLodPixels>-1</maxLodPixels>
</Lod>
</Region>
<Link>
<href>../../18/157062/157349.kml</href>
<viewRefreshMode>onRegion</viewRefreshMode>
</Link>
</NetworkLink>

</Folder>

</Document>
</kml>
