<?xml version="1.0" encoding="utf-8"?>
<kml xmlns="http://www.opengis.net/kml/2.2">
<Document>
<name>21/1256498/1258794.kml</name>
<description></description>
<Style><ListStyle id="hideChildren">
<listItemType>checkHideChildren</listItemType>
</ListStyle>
</Style>
<Folder>
<Region>
<LatLonAltBox>
<north>33.913021520849760</north>
<south>33.912879061442020</south>
<east>35.692348480224624</east>
<west>35.692176818847663</west>
</LatLonAltBox>
<Lod>
<minLodPixels>128</minLodPixels>
<maxLodPixels>-1</maxLodPixels>
</Lod>
</Region>
<GroundOverlay>
<drawOrder>42</drawOrder>
<Icon>
<href>../../21/1256498/1258794.png</href>
</Icon>
<LatLonBox>
<north>33.913021520849760</north>
<south>33.912879061442020</south>
<east>35.692348480224624</east>
<west>35.692176818847663</west>
</LatLonBox>
</GroundOverlay>
<NetworkLink>
<name>22/2512996/2517588.kml</name>
<Region>
<LatLonAltBox>
<north>33.912950291175648</north>
<south>33.912879061442020</south>
<east>35.692262649536140</east>
<west>35.692176818847663</west>
</LatLonAltBox>
<Lod>
<minLodPixels>128</minLodPixels>
<maxLodPixels>-1</maxLodPixels>
</Lod>
</Region>
<Link>
<href>../../22/2512996/2517588.kml</href>
<viewRefreshMode>onRegion</viewRefreshMode>
</Link>
</NetworkLink>
<NetworkLink>
<name>22/2512997/2517588.kml</name>
<Region>
<LatLonAltBox>
<north>33.912950291175648</north>
<south>33.912879061442020</south>
<east>35.692348480224624</east>
<west>35.692262649536140</west>
</LatLonAltBox>
<Lod>
<minLodPixels>128</minLodPixels>
<maxLodPixels>-1</maxLodPixels>
</Lod>
</Region>
<Link>
<href>../../22/2512997/2517588.kml</href>
<viewRefreshMode>onRegion</viewRefreshMode>
</Link>
</NetworkLink>
<NetworkLink>
<name>22/2512996/2517589.kml</name>
<Region>
<LatLonAltBox>
<north>33.913021520849760</north>
<south>33.912950291175648</south>
<east>35.692262649536140</east>
<west>35.692176818847663</west>
</LatLonAltBox>
<Lod>
<minLodPixels>128</minLodPixels>
<maxLodPixels>-1</maxLodPixels>
</Lod>
</Region>
<Link>
<href>../../22/2512996/2517589.kml</href>
<viewRefreshMode>onRegion</viewRefreshMode>
</Link>
</NetworkLink>
<NetworkLink>
<name>22/2512997/2517589.kml</name>
<Region>
<LatLonAltBox>
<north>33.913021520849760</north>
<south>33.912950291175648</south>
<east>35.692348480224624</east>
<west>35.692262649536140</west>
</LatLonAltBox>
<Lod>
<minLodPixels>128</minLodPixels>
<maxLodPixels>-1</maxLodPixels>
</Lod>
</Region>
<Link>
<href>../../22/2512997/2517589.kml</href>
<viewRefreshMode>onRegion</viewRefreshMode>
</Link>
</NetworkLink>

</Folder>

</Document>
</kml>
