<?xml version="1.0" encoding="utf-8"?>
<kml xmlns="http://www.opengis.net/kml/2.2">
<Document>
<name>21/1256499/1258797.kml</name>
<description></description>
<Style><ListStyle id="hideChildren">
<listItemType>checkHideChildren</listItemType>
</ListStyle>
</Style>
<Folder>
<Region>
<LatLonAltBox>
<north>33.913448897644052</north>
<south>33.913306438950741</south>
<east>35.692520141601555</east>
<west>35.692348480224624</west>
</LatLonAltBox>
<Lod>
<minLodPixels>128</minLodPixels>
<maxLodPixels>-1</maxLodPixels>
</Lod>
</Region>
<GroundOverlay>
<drawOrder>42</drawOrder>
<Icon>
<href>../../21/1256499/1258797.png</href>
</Icon>
<LatLonBox>
<north>33.913448897644052</north>
<south>33.913306438950741</south>
<east>35.692520141601555</east>
<west>35.692348480224624</west>
</LatLonBox>
</GroundOverlay>
<NetworkLink>
<name>22/2512998/2517594.kml</name>
<Region>
<LatLonAltBox>
<north>33.913377668327179</north>
<south>33.913306438950741</south>
<east>35.692434310913072</east>
<west>35.692348480224624</west>
</LatLonAltBox>
<Lod>
<minLodPixels>128</minLodPixels>
<maxLodPixels>-1</maxLodPixels>
</Lod>
</Region>
<Link>
<href>../../22/2512998/2517594.kml</href>
<viewRefreshMode>onRegion</viewRefreshMode>
</Link>
</NetworkLink>
<NetworkLink>
<name>22/2512999/2517594.kml</name>
<Region>
<LatLonAltBox>
<north>33.913377668327179</north>
<south>33.913306438950741</south>
<east>35.692520141601555</east>
<west>35.692434310913072</west>
</LatLonAltBox>
<Lod>
<minLodPixels>128</minLodPixels>
<maxLodPixels>-1</maxLodPixels>
</Lod>
</Region>
<Link>
<href>../../22/2512999/2517594.kml</href>
<viewRefreshMode>onRegion</viewRefreshMode>
</Link>
</NetworkLink>
<NetworkLink>
<name>22/2512998/2517595.kml</name>
<Region>
<LatLonAltBox>
<north>33.913448897644052</north>
<south>33.913377668327179</south>
<east>35.692434310913072</east>
<west>35.692348480224624</west>
</LatLonAltBox>
<Lod>
<minLodPixels>128</minLodPixels>
<maxLodPixels>-1</maxLodPixels>
</Lod>
</Region>
<Link>
<href>../../22/2512998/2517595.kml</href>
<viewRefreshMode>onRegion</viewRefreshMode>
</Link>
</NetworkLink>
<NetworkLink>
<name>22/2512999/2517595.kml</name>
<Region>
<LatLonAltBox>
<north>33.913448897644052</north>
<south>33.913377668327179</south>
<east>35.692520141601555</east>
<west>35.692434310913072</west>
</LatLonAltBox>
<Lod>
<minLodPixels>128</minLodPixels>
<maxLodPixels>-1</maxLodPixels>
</Lod>
</Region>
<Link>
<href>../../22/2512999/2517595.kml</href>
<viewRefreshMode>onRegion</viewRefreshMode>
</Link>
</NetworkLink>

</Folder>

</Document>
</kml>
