<?xml version="1.0" encoding="utf-8"?>
<kml xmlns="http://www.opengis.net/kml/2.2">
<Document>
<name>22/2512971/2517611.kml</name>
<description></description>
<Style><ListStyle id="hideChildren">
<listItemType>checkHideChildren</listItemType>
</ListStyle>
</Style>
<Folder>
<Region>
<LatLonAltBox>
<north>33.914588558617510</north>
<south>33.914517330253176</south>
<east>35.690116882324226</east>
<west>35.690031051635749</west>
</LatLonAltBox>
<Lod>
<minLodPixels>128</minLodPixels>
<maxLodPixels>-1</maxLodPixels>
</Lod>
</Region>
<GroundOverlay>
<drawOrder>44</drawOrder>
<Icon>
<href>../../22/2512971/2517611.png</href>
</Icon>
<LatLonBox>
<north>33.914588558617510</north>
<south>33.914517330253176</south>
<east>35.690116882324226</east>
<west>35.690031051635749</west>
</LatLonBox>
</GroundOverlay>

</Folder>

</Document>
</kml>
