<?xml version="1.0" encoding="utf-8"?>
<kml xmlns="http://www.opengis.net/kml/2.2">
<Document>
<name>22/2513000/2517582.kml</name>
<description></description>
<Style><ListStyle id="hideChildren">
<listItemType>checkHideChildren</listItemType>
</ListStyle>
</Style>
<Folder>
<Region>
<LatLonAltBox>
<north>33.912522911880927</north>
<south>33.912451681790110</south>
<east>35.692605972290032</east>
<west>35.692520141601555</west>
</LatLonAltBox>
<Lod>
<minLodPixels>128</minLodPixels>
<maxLodPixels>-1</maxLodPixels>
</Lod>
</Region>
<GroundOverlay>
<drawOrder>44</drawOrder>
<Icon>
<href>../../22/2513000/2517582.png</href>
</Icon>
<LatLonBox>
<north>33.912522911880927</north>
<south>33.912451681790110</south>
<east>35.692605972290032</east>
<west>35.692520141601555</west>
</LatLonBox>
</GroundOverlay>

</Folder>

</Document>
</kml>
