<?xml version="1.0" encoding="utf-8"?>
<kml xmlns="http://www.opengis.net/kml/2.2">
<Document>
<name>19/314123/314700.kml</name>
<description></description>
<Style><ListStyle id="hideChildren">
<listItemType>checkHideChildren</listItemType>
</ListStyle>
</Style>
<Folder>
<Region>
<LatLonAltBox>
<north>33.914303644803006</north>
<south>33.913733814316252</south>
<east>35.691833496093743</east>
<west>35.691146850585930</west>
</LatLonAltBox>
<Lod>
<minLodPixels>128</minLodPixels>
<maxLodPixels>-1</maxLodPixels>
</Lod>
</Region>
<GroundOverlay>
<drawOrder>38</drawOrder>
<Icon>
<href>../../19/314123/314700.png</href>
</Icon>
<LatLonBox>
<north>33.914303644803006</north>
<south>33.913733814316252</south>
<east>35.691833496093743</east>
<west>35.691146850585930</west>
</LatLonBox>
</GroundOverlay>
<NetworkLink>
<name>20/628246/629400.kml</name>
<Region>
<LatLonAltBox>
<north>33.914018730035885</north>
<south>33.913733814316252</south>
<east>35.691490173339851</east>
<west>35.691146850585930</west>
</LatLonAltBox>
<Lod>
<minLodPixels>128</minLodPixels>
<maxLodPixels>-1</maxLodPixels>
</Lod>
</Region>
<Link>
<href>../../20/628246/629400.kml</href>
<viewRefreshMode>onRegion</viewRefreshMode>
</Link>
</NetworkLink>
<NetworkLink>
<name>20/628247/629400.kml</name>
<Region>
<LatLonAltBox>
<north>33.914018730035885</north>
<south>33.913733814316252</south>
<east>35.691833496093743</east>
<west>35.691490173339851</west>
</LatLonAltBox>
<Lod>
<minLodPixels>128</minLodPixels>
<maxLodPixels>-1</maxLodPixels>
</Lod>
</Region>
<Link>
<href>../../20/628247/629400.kml</href>
<viewRefreshMode>onRegion</viewRefreshMode>
</Link>
</NetworkLink>
<NetworkLink>
<name>20/628246/629401.kml</name>
<Region>
<LatLonAltBox>
<north>33.914303644803006</north>
<south>33.914018730035885</south>
<east>35.691490173339851</east>
<west>35.691146850585930</west>
</LatLonAltBox>
<Lod>
<minLodPixels>128</minLodPixels>
<maxLodPixels>-1</maxLodPixels>
</Lod>
</Region>
<Link>
<href>../../20/628246/629401.kml</href>
<viewRefreshMode>onRegion</viewRefreshMode>
</Link>
</NetworkLink>
<NetworkLink>
<name>20/628247/629401.kml</name>
<Region>
<LatLonAltBox>
<north>33.914303644803006</north>
<south>33.914018730035885</south>
<east>35.691833496093743</east>
<west>35.691490173339851</west>
</LatLonAltBox>
<Lod>
<minLodPixels>128</minLodPixels>
<maxLodPixels>-1</maxLodPixels>
</Lod>
</Region>
<Link>
<href>../../20/628247/629401.kml</href>
<viewRefreshMode>onRegion</viewRefreshMode>
</Link>
</NetworkLink>

</Folder>

</Document>
</kml>
