<?xml version="1.0" encoding="utf-8"?>
<kml xmlns="http://www.opengis.net/kml/2.2">
<Document>
<name>22/2512994/2517591.kml</name>
<description></description>
<Style><ListStyle id="hideChildren">
<listItemType>checkHideChildren</listItemType>
</ListStyle>
</Style>
<Folder>
<Region>
<LatLonAltBox>
<north>33.913163980019320</north>
<south>33.913092750464308</south>
<east>35.692090988159180</east>
<west>35.692005157470696</west>
</LatLonAltBox>
<Lod>
<minLodPixels>128</minLodPixels>
<maxLodPixels>-1</maxLodPixels>
</Lod>
</Region>
<GroundOverlay>
<drawOrder>44</drawOrder>
<Icon>
<href>../../22/2512994/2517591.png</href>
</Icon>
<LatLonBox>
<north>33.913163980019320</north>
<south>33.913092750464308</south>
<east>35.692090988159180</east>
<west>35.692005157470696</west>
</LatLonBox>
</GroundOverlay>

</Folder>

</Document>
</kml>
