<?xml version="1.0" encoding="utf-8"?>
<kml xmlns="http://www.opengis.net/kml/2.2">
<Document>
<name>21/1256496/1258795.kml</name>
<description></description>
<Style><ListStyle id="hideChildren">
<listItemType>checkHideChildren</listItemType>
</ListStyle>
</Style>
<Folder>
<Region>
<LatLonAltBox>
<north>33.913163980019320</north>
<south>33.913021520849760</south>
<east>35.692005157470696</east>
<west>35.691833496093743</west>
</LatLonAltBox>
<Lod>
<minLodPixels>128</minLodPixels>
<maxLodPixels>-1</maxLodPixels>
</Lod>
</Region>
<GroundOverlay>
<drawOrder>42</drawOrder>
<Icon>
<href>../../21/1256496/1258795.png</href>
</Icon>
<LatLonBox>
<north>33.913163980019320</north>
<south>33.913021520849760</south>
<east>35.692005157470696</east>
<west>35.691833496093743</west>
</LatLonBox>
</GroundOverlay>
<NetworkLink>
<name>22/2512992/2517590.kml</name>
<Region>
<LatLonAltBox>
<north>33.913092750464308</north>
<south>33.913021520849760</south>
<east>35.691919326782219</east>
<west>35.691833496093743</west>
</LatLonAltBox>
<Lod>
<minLodPixels>128</minLodPixels>
<maxLodPixels>-1</maxLodPixels>
</Lod>
</Region>
<Link>
<href>../../22/2512992/2517590.kml</href>
<viewRefreshMode>onRegion</viewRefreshMode>
</Link>
</NetworkLink>
<NetworkLink>
<name>22/2512993/2517590.kml</name>
<Region>
<LatLonAltBox>
<north>33.913092750464308</north>
<south>33.913021520849760</south>
<east>35.692005157470696</east>
<west>35.691919326782219</west>
</LatLonAltBox>
<Lod>
<minLodPixels>128</minLodPixels>
<maxLodPixels>-1</maxLodPixels>
</Lod>
</Region>
<Link>
<href>../../22/2512993/2517590.kml</href>
<viewRefreshMode>onRegion</viewRefreshMode>
</Link>
</NetworkLink>
<NetworkLink>
<name>22/2512992/2517591.kml</name>
<Region>
<LatLonAltBox>
<north>33.913163980019320</north>
<south>33.913092750464308</south>
<east>35.691919326782219</east>
<west>35.691833496093743</west>
</LatLonAltBox>
<Lod>
<minLodPixels>128</minLodPixels>
<maxLodPixels>-1</maxLodPixels>
</Lod>
</Region>
<Link>
<href>../../22/2512992/2517591.kml</href>
<viewRefreshMode>onRegion</viewRefreshMode>
</Link>
</NetworkLink>
<NetworkLink>
<name>22/2512993/2517591.kml</name>
<Region>
<LatLonAltBox>
<north>33.913163980019320</north>
<south>33.913092750464308</south>
<east>35.692005157470696</east>
<west>35.691919326782219</west>
</LatLonAltBox>
<Lod>
<minLodPixels>128</minLodPixels>
<maxLodPixels>-1</maxLodPixels>
</Lod>
</Region>
<Link>
<href>../../22/2512993/2517591.kml</href>
<viewRefreshMode>onRegion</viewRefreshMode>
</Link>
</NetworkLink>

</Folder>

</Document>
</kml>
