<?xml version="1.0" encoding="utf-8"?>
<kml xmlns="http://www.opengis.net/kml/2.2">
<Document>
<name>22/2512999/2517609.kml</name>
<description></description>
<Style><ListStyle id="hideChildren">
<listItemType>checkHideChildren</listItemType>
</ListStyle>
</Style>
<Folder>
<Region>
<LatLonAltBox>
<north>33.914446101829327</north>
<south>33.914374873345935</south>
<east>35.692520141601555</east>
<west>35.692434310913072</west>
</LatLonAltBox>
<Lod>
<minLodPixels>128</minLodPixels>
<maxLodPixels>-1</maxLodPixels>
</Lod>
</Region>
<GroundOverlay>
<drawOrder>44</drawOrder>
<Icon>
<href>../../22/2512999/2517609.png</href>
</Icon>
<LatLonBox>
<north>33.914446101829327</north>
<south>33.914374873345935</south>
<east>35.692520141601555</east>
<west>35.692434310913072</west>
</LatLonBox>
</GroundOverlay>

</Folder>

</Document>
</kml>
