<?xml version="1.0" encoding="utf-8"?>
<kml xmlns="http://www.opengis.net/kml/2.2">
<Document>
<name>16/39265/39337.kml</name>
<description></description>
<Style><ListStyle id="hideChildren">
<listItemType>checkHideChildren</listItemType>
</ListStyle>
</Style>
<Folder>
<Region>
<LatLonAltBox>
<north>33.916013113401696</north>
<south>33.911454454267634</south>
<east>35.694580078124986</east>
<west>35.689086914062493</west>
</LatLonAltBox>
<Lod>
<minLodPixels>128</minLodPixels>
<maxLodPixels>-1</maxLodPixels>
</Lod>
</Region>
<GroundOverlay>
<drawOrder>32</drawOrder>
<Icon>
<href>../../16/39265/39337.png</href>
</Icon>
<LatLonBox>
<north>33.916013113401696</north>
<south>33.911454454267634</south>
<east>35.694580078124986</east>
<west>35.689086914062493</west>
</LatLonBox>
</GroundOverlay>
<NetworkLink>
<name>17/78530/78674.kml</name>
<Region>
<LatLonAltBox>
<north>33.913733814316252</north>
<south>33.911454454267634</south>
<east>35.691833496093743</east>
<west>35.689086914062493</west>
</LatLonAltBox>
<Lod>
<minLodPixels>128</minLodPixels>
<maxLodPixels>-1</maxLodPixels>
</Lod>
</Region>
<Link>
<href>../../17/78530/78674.kml</href>
<viewRefreshMode>onRegion</viewRefreshMode>
</Link>
</NetworkLink>
<NetworkLink>
<name>17/78531/78674.kml</name>
<Region>
<LatLonAltBox>
<north>33.913733814316252</north>
<south>33.911454454267634</south>
<east>35.694580078124986</east>
<west>35.691833496093743</west>
</LatLonAltBox>
<Lod>
<minLodPixels>128</minLodPixels>
<maxLodPixels>-1</maxLodPixels>
</Lod>
</Region>
<Link>
<href>../../17/78531/78674.kml</href>
<viewRefreshMode>onRegion</viewRefreshMode>
</Link>
</NetworkLink>
<NetworkLink>
<name>17/78530/78675.kml</name>
<Region>
<LatLonAltBox>
<north>33.916013113401696</north>
<south>33.913733814316252</south>
<east>35.691833496093743</east>
<west>35.689086914062493</west>
</LatLonAltBox>
<Lod>
<minLodPixels>128</minLodPixels>
<maxLodPixels>-1</maxLodPixels>
</Lod>
</Region>
<Link>
<href>../../17/78530/78675.kml</href>
<viewRefreshMode>onRegion</viewRefreshMode>
</Link>
</NetworkLink>
<NetworkLink>
<name>17/78531/78675.kml</name>
<Region>
<LatLonAltBox>
<north>33.916013113401696</north>
<south>33.913733814316252</south>
<east>35.694580078124986</east>
<west>35.691833496093743</west>
</LatLonAltBox>
<Lod>
<minLodPixels>128</minLodPixels>
<maxLodPixels>-1</maxLodPixels>
</Lod>
</Region>
<Link>
<href>../../17/78531/78675.kml</href>
<viewRefreshMode>onRegion</viewRefreshMode>
</Link>
</NetworkLink>

</Folder>

</Document>
</kml>
