<?xml version="1.0" encoding="utf-8"?>
<kml xmlns="http://www.opengis.net/kml/2.2">
<Document>
<name>20/628246/629401.kml</name>
<description></description>
<Style><ListStyle id="hideChildren">
<listItemType>checkHideChildren</listItemType>
</ListStyle>
</Style>
<Folder>
<Region>
<LatLonAltBox>
<north>33.914303644803006</north>
<south>33.914018730035885</south>
<east>35.691490173339851</east>
<west>35.691146850585930</west>
</LatLonAltBox>
<Lod>
<minLodPixels>128</minLodPixels>
<maxLodPixels>-1</maxLodPixels>
</Lod>
</Region>
<GroundOverlay>
<drawOrder>40</drawOrder>
<Icon>
<href>../../20/628246/629401.png</href>
</Icon>
<LatLonBox>
<north>33.914303644803006</north>
<south>33.914018730035885</south>
<east>35.691490173339851</east>
<west>35.691146850585930</west>
</LatLonBox>
</GroundOverlay>
<NetworkLink>
<name>21/1256492/1258802.kml</name>
<Region>
<LatLonAltBox>
<north>33.914161187538525</north>
<south>33.914018730035885</south>
<east>35.691318511962891</east>
<west>35.691146850585930</west>
</LatLonAltBox>
<Lod>
<minLodPixels>128</minLodPixels>
<maxLodPixels>-1</maxLodPixels>
</Lod>
</Region>
<Link>
<href>../../21/1256492/1258802.kml</href>
<viewRefreshMode>onRegion</viewRefreshMode>
</Link>
</NetworkLink>
<NetworkLink>
<name>21/1256493/1258802.kml</name>
<Region>
<LatLonAltBox>
<north>33.914161187538525</north>
<south>33.914018730035885</south>
<east>35.691490173339851</east>
<west>35.691318511962891</west>
</LatLonAltBox>
<Lod>
<minLodPixels>128</minLodPixels>
<maxLodPixels>-1</maxLodPixels>
</Lod>
</Region>
<Link>
<href>../../21/1256493/1258802.kml</href>
<viewRefreshMode>onRegion</viewRefreshMode>
</Link>
</NetworkLink>
<NetworkLink>
<name>21/1256492/1258803.kml</name>
<Region>
<LatLonAltBox>
<north>33.914303644803006</north>
<south>33.914161187538525</south>
<east>35.691318511962891</east>
<west>35.691146850585930</west>
</LatLonAltBox>
<Lod>
<minLodPixels>128</minLodPixels>
<maxLodPixels>-1</maxLodPixels>
</Lod>
</Region>
<Link>
<href>../../21/1256492/1258803.kml</href>
<viewRefreshMode>onRegion</viewRefreshMode>
</Link>
</NetworkLink>
<NetworkLink>
<name>21/1256493/1258803.kml</name>
<Region>
<LatLonAltBox>
<north>33.914303644803006</north>
<south>33.914161187538525</south>
<east>35.691490173339851</east>
<west>35.691318511962891</west>
</LatLonAltBox>
<Lod>
<minLodPixels>128</minLodPixels>
<maxLodPixels>-1</maxLodPixels>
</Lod>
</Region>
<Link>
<href>../../21/1256493/1258803.kml</href>
<viewRefreshMode>onRegion</viewRefreshMode>
</Link>
</NetworkLink>

</Folder>

</Document>
</kml>
