<?xml version="1.0" encoding="utf-8"?>
<kml xmlns="http://www.opengis.net/kml/2.2">
<Document>
<name>18/157060/157349.kml</name>
<description></description>
<Style><ListStyle id="hideChildren">
<listItemType>checkHideChildren</listItemType>
</ListStyle>
</Style>
<Folder>
<Region>
<LatLonAltBox>
<north>33.913733814316252</north>
<south>33.912594141912230</south>
<east>35.690460205078118</east>
<west>35.689086914062493</west>
</LatLonAltBox>
<Lod>
<minLodPixels>128</minLodPixels>
<maxLodPixels>-1</maxLodPixels>
</Lod>
</Region>
<GroundOverlay>
<drawOrder>36</drawOrder>
<Icon>
<href>../../18/157060/157349.png</href>
</Icon>
<LatLonBox>
<north>33.913733814316252</north>
<south>33.912594141912230</south>
<east>35.690460205078118</east>
<west>35.689086914062493</west>
</LatLonBox>
</GroundOverlay>
<NetworkLink>
<name>19/314121/314698.kml</name>
<Region>
<LatLonAltBox>
<north>33.913163980019320</north>
<south>33.912594141912230</south>
<east>35.690460205078118</east>
<west>35.689773559570305</west>
</LatLonAltBox>
<Lod>
<minLodPixels>128</minLodPixels>
<maxLodPixels>-1</maxLodPixels>
</Lod>
</Region>
<Link>
<href>../../19/314121/314698.kml</href>
<viewRefreshMode>onRegion</viewRefreshMode>
</Link>
</NetworkLink>
<NetworkLink>
<name>19/314121/314699.kml</name>
<Region>
<LatLonAltBox>
<north>33.913733814316252</north>
<south>33.913163980019320</south>
<east>35.690460205078118</east>
<west>35.689773559570305</west>
</LatLonAltBox>
<Lod>
<minLodPixels>128</minLodPixels>
<maxLodPixels>-1</maxLodPixels>
</Lod>
</Region>
<Link>
<href>../../19/314121/314699.kml</href>
<viewRefreshMode>onRegion</viewRefreshMode>
</Link>
</NetworkLink>

</Folder>

</Document>
</kml>
