<?xml version="1.0" encoding="utf-8"?>
<kml xmlns="http://www.opengis.net/kml/2.2">
<Document>
<name>19/314125/314700.kml</name>
<description></description>
<Style><ListStyle id="hideChildren">
<listItemType>checkHideChildren</listItemType>
</ListStyle>
</Style>
<Folder>
<Region>
<LatLonAltBox>
<north>33.914303644803006</north>
<south>33.913733814316252</south>
<east>35.693206787109368</east>
<west>35.692520141601555</west>
</LatLonAltBox>
<Lod>
<minLodPixels>128</minLodPixels>
<maxLodPixels>-1</maxLodPixels>
</Lod>
</Region>
<GroundOverlay>
<drawOrder>38</drawOrder>
<Icon>
<href>../../19/314125/314700.png</href>
</Icon>
<LatLonBox>
<north>33.914303644803006</north>
<south>33.913733814316252</south>
<east>35.693206787109368</east>
<west>35.692520141601555</west>
</LatLonBox>
</GroundOverlay>
<NetworkLink>
<name>20/628250/629400.kml</name>
<Region>
<LatLonAltBox>
<north>33.914018730035885</north>
<south>33.913733814316252</south>
<east>35.692863464355476</east>
<west>35.692520141601555</west>
</LatLonAltBox>
<Lod>
<minLodPixels>128</minLodPixels>
<maxLodPixels>-1</maxLodPixels>
</Lod>
</Region>
<Link>
<href>../../20/628250/629400.kml</href>
<viewRefreshMode>onRegion</viewRefreshMode>
</Link>
</NetworkLink>
<NetworkLink>
<name>20/628251/629400.kml</name>
<Region>
<LatLonAltBox>
<north>33.914018730035885</north>
<south>33.913733814316252</south>
<east>35.693206787109368</east>
<west>35.692863464355476</west>
</LatLonAltBox>
<Lod>
<minLodPixels>128</minLodPixels>
<maxLodPixels>-1</maxLodPixels>
</Lod>
</Region>
<Link>
<href>../../20/628251/629400.kml</href>
<viewRefreshMode>onRegion</viewRefreshMode>
</Link>
</NetworkLink>
<NetworkLink>
<name>20/628250/629401.kml</name>
<Region>
<LatLonAltBox>
<north>33.914303644803006</north>
<south>33.914018730035885</south>
<east>35.692863464355476</east>
<west>35.692520141601555</west>
</LatLonAltBox>
<Lod>
<minLodPixels>128</minLodPixels>
<maxLodPixels>-1</maxLodPixels>
</Lod>
</Region>
<Link>
<href>../../20/628250/629401.kml</href>
<viewRefreshMode>onRegion</viewRefreshMode>
</Link>
</NetworkLink>
<NetworkLink>
<name>20/628251/629401.kml</name>
<Region>
<LatLonAltBox>
<north>33.914303644803006</north>
<south>33.914018730035885</south>
<east>35.693206787109368</east>
<west>35.692863464355476</west>
</LatLonAltBox>
<Lod>
<minLodPixels>128</minLodPixels>
<maxLodPixels>-1</maxLodPixels>
</Lod>
</Region>
<Link>
<href>../../20/628251/629401.kml</href>
<viewRefreshMode>onRegion</viewRefreshMode>
</Link>
</NetworkLink>

</Folder>

</Document>
</kml>
