<?xml version="1.0" encoding="utf-8"?>
<kml xmlns="http://www.opengis.net/kml/2.2">
<Document>
<name>20/628242/629398.kml</name>
<description></description>
<Style><ListStyle id="hideChildren">
<listItemType>checkHideChildren</listItemType>
</ListStyle>
</Style>
<Folder>
<Region>
<LatLonAltBox>
<north>33.913448897644052</north>
<south>33.913163980019320</south>
<east>35.690116882324226</east>
<west>35.689773559570305</west>
</LatLonAltBox>
<Lod>
<minLodPixels>128</minLodPixels>
<maxLodPixels>-1</maxLodPixels>
</Lod>
</Region>
<GroundOverlay>
<drawOrder>40</drawOrder>
<Icon>
<href>../../20/628242/629398.png</href>
</Icon>
<LatLonBox>
<north>33.913448897644052</north>
<south>33.913163980019320</south>
<east>35.690116882324226</east>
<west>35.689773559570305</west>
</LatLonBox>
</GroundOverlay>
<NetworkLink>
<name>21/1256485/1258796.kml</name>
<Region>
<LatLonAltBox>
<north>33.913306438950741</north>
<south>33.913163980019320</south>
<east>35.690116882324226</east>
<west>35.689945220947266</west>
</LatLonAltBox>
<Lod>
<minLodPixels>128</minLodPixels>
<maxLodPixels>-1</maxLodPixels>
</Lod>
</Region>
<Link>
<href>../../21/1256485/1258796.kml</href>
<viewRefreshMode>onRegion</viewRefreshMode>
</Link>
</NetworkLink>
<NetworkLink>
<name>21/1256485/1258797.kml</name>
<Region>
<LatLonAltBox>
<north>33.913448897644052</north>
<south>33.913306438950741</south>
<east>35.690116882324226</east>
<west>35.689945220947266</west>
</LatLonAltBox>
<Lod>
<minLodPixels>128</minLodPixels>
<maxLodPixels>-1</maxLodPixels>
</Lod>
</Region>
<Link>
<href>../../21/1256485/1258797.kml</href>
<viewRefreshMode>onRegion</viewRefreshMode>
</Link>
</NetworkLink>

</Folder>

</Document>
</kml>
