<?xml version="1.0" encoding="utf-8"?>
<kml xmlns="http://www.opengis.net/kml/2.2">
<Document>
<name>21/1256487/1258793.kml</name>
<description></description>
<Style><ListStyle id="hideChildren">
<listItemType>checkHideChildren</listItemType>
</ListStyle>
</Style>
<Folder>
<Region>
<LatLonAltBox>
<north>33.912879061442020</north>
<south>33.912736601796169</south>
<east>35.690460205078118</east>
<west>35.690288543701186</west>
</LatLonAltBox>
<Lod>
<minLodPixels>128</minLodPixels>
<maxLodPixels>-1</maxLodPixels>
</Lod>
</Region>
<GroundOverlay>
<drawOrder>42</drawOrder>
<Icon>
<href>../../21/1256487/1258793.png</href>
</Icon>
<LatLonBox>
<north>33.912879061442020</north>
<south>33.912736601796169</south>
<east>35.690460205078118</east>
<west>35.690288543701186</west>
</LatLonBox>
</GroundOverlay>
<NetworkLink>
<name>22/2512974/2517586.kml</name>
<Region>
<LatLonAltBox>
<north>33.912807831648877</north>
<south>33.912736601796169</south>
<east>35.690374374389634</east>
<west>35.690288543701186</west>
</LatLonAltBox>
<Lod>
<minLodPixels>128</minLodPixels>
<maxLodPixels>-1</maxLodPixels>
</Lod>
</Region>
<Link>
<href>../../22/2512974/2517586.kml</href>
<viewRefreshMode>onRegion</viewRefreshMode>
</Link>
</NetworkLink>
<NetworkLink>
<name>22/2512975/2517586.kml</name>
<Region>
<LatLonAltBox>
<north>33.912807831648877</north>
<south>33.912736601796169</south>
<east>35.690460205078118</east>
<west>35.690374374389634</west>
</LatLonAltBox>
<Lod>
<minLodPixels>128</minLodPixels>
<maxLodPixels>-1</maxLodPixels>
</Lod>
</Region>
<Link>
<href>../../22/2512975/2517586.kml</href>
<viewRefreshMode>onRegion</viewRefreshMode>
</Link>
</NetworkLink>
<NetworkLink>
<name>22/2512974/2517587.kml</name>
<Region>
<LatLonAltBox>
<north>33.912879061442020</north>
<south>33.912807831648877</south>
<east>35.690374374389634</east>
<west>35.690288543701186</west>
</LatLonAltBox>
<Lod>
<minLodPixels>128</minLodPixels>
<maxLodPixels>-1</maxLodPixels>
</Lod>
</Region>
<Link>
<href>../../22/2512974/2517587.kml</href>
<viewRefreshMode>onRegion</viewRefreshMode>
</Link>
</NetworkLink>
<NetworkLink>
<name>22/2512975/2517587.kml</name>
<Region>
<LatLonAltBox>
<north>33.912879061442020</north>
<south>33.912807831648877</south>
<east>35.690460205078118</east>
<west>35.690374374389634</west>
</LatLonAltBox>
<Lod>
<minLodPixels>128</minLodPixels>
<maxLodPixels>-1</maxLodPixels>
</Lod>
</Region>
<Link>
<href>../../22/2512975/2517587.kml</href>
<viewRefreshMode>onRegion</viewRefreshMode>
</Link>
</NetworkLink>

</Folder>

</Document>
</kml>
