<?xml version="1.0" encoding="utf-8"?>
<kml xmlns="http://www.opengis.net/kml/2.2">
<Document>
<name>21/1256488/1258801.kml</name>
<description></description>
<Style><ListStyle id="hideChildren">
<listItemType>checkHideChildren</listItemType>
</ListStyle>
</Style>
<Folder>
<Region>
<LatLonAltBox>
<north>33.914018730035885</north>
<south>33.913876272295134</south>
<east>35.690631866455078</east>
<west>35.690460205078118</west>
</LatLonAltBox>
<Lod>
<minLodPixels>128</minLodPixels>
<maxLodPixels>-1</maxLodPixels>
</Lod>
</Region>
<GroundOverlay>
<drawOrder>42</drawOrder>
<Icon>
<href>../../21/1256488/1258801.png</href>
</Icon>
<LatLonBox>
<north>33.914018730035885</north>
<south>33.913876272295134</south>
<east>35.690631866455078</east>
<west>35.690460205078118</west>
</LatLonBox>
</GroundOverlay>
<NetworkLink>
<name>22/2512976/2517602.kml</name>
<Region>
<LatLonAltBox>
<north>33.913947501195281</north>
<south>33.913876272295134</south>
<east>35.690546035766594</east>
<west>35.690460205078118</west>
</LatLonAltBox>
<Lod>
<minLodPixels>128</minLodPixels>
<maxLodPixels>-1</maxLodPixels>
</Lod>
</Region>
<Link>
<href>../../22/2512976/2517602.kml</href>
<viewRefreshMode>onRegion</viewRefreshMode>
</Link>
</NetworkLink>
<NetworkLink>
<name>22/2512977/2517602.kml</name>
<Region>
<LatLonAltBox>
<north>33.913947501195281</north>
<south>33.913876272295134</south>
<east>35.690631866455078</east>
<west>35.690546035766594</west>
</LatLonAltBox>
<Lod>
<minLodPixels>128</minLodPixels>
<maxLodPixels>-1</maxLodPixels>
</Lod>
</Region>
<Link>
<href>../../22/2512977/2517602.kml</href>
<viewRefreshMode>onRegion</viewRefreshMode>
</Link>
</NetworkLink>
<NetworkLink>
<name>22/2512976/2517603.kml</name>
<Region>
<LatLonAltBox>
<north>33.914018730035885</north>
<south>33.913947501195281</south>
<east>35.690546035766594</east>
<west>35.690460205078118</west>
</LatLonAltBox>
<Lod>
<minLodPixels>128</minLodPixels>
<maxLodPixels>-1</maxLodPixels>
</Lod>
</Region>
<Link>
<href>../../22/2512976/2517603.kml</href>
<viewRefreshMode>onRegion</viewRefreshMode>
</Link>
</NetworkLink>
<NetworkLink>
<name>22/2512977/2517603.kml</name>
<Region>
<LatLonAltBox>
<north>33.914018730035885</north>
<south>33.913947501195281</south>
<east>35.690631866455078</east>
<west>35.690546035766594</west>
</LatLonAltBox>
<Lod>
<minLodPixels>128</minLodPixels>
<maxLodPixels>-1</maxLodPixels>
</Lod>
</Region>
<Link>
<href>../../22/2512977/2517603.kml</href>
<viewRefreshMode>onRegion</viewRefreshMode>
</Link>
</NetworkLink>

</Folder>

</Document>
</kml>
