<?xml version="1.0" encoding="utf-8"?>
<kml xmlns="http://www.opengis.net/kml/2.2">
<Document>
<name>20/628244/629402.kml</name>
<description></description>
<Style><ListStyle id="hideChildren">
<listItemType>checkHideChildren</listItemType>
</ListStyle>
</Style>
<Folder>
<Region>
<LatLonAltBox>
<north>33.914588558617510</north>
<south>33.914303644803006</south>
<east>35.690803527832038</east>
<west>35.690460205078118</west>
</LatLonAltBox>
<Lod>
<minLodPixels>128</minLodPixels>
<maxLodPixels>-1</maxLodPixels>
</Lod>
</Region>
<GroundOverlay>
<drawOrder>40</drawOrder>
<Icon>
<href>../../20/628244/629402.png</href>
</Icon>
<LatLonBox>
<north>33.914588558617510</north>
<south>33.914303644803006</south>
<east>35.690803527832038</east>
<west>35.690460205078118</west>
</LatLonBox>
</GroundOverlay>
<NetworkLink>
<name>21/1256488/1258804.kml</name>
<Region>
<LatLonAltBox>
<north>33.914446101829327</north>
<south>33.914303644803006</south>
<east>35.690631866455078</east>
<west>35.690460205078118</west>
</LatLonAltBox>
<Lod>
<minLodPixels>128</minLodPixels>
<maxLodPixels>-1</maxLodPixels>
</Lod>
</Region>
<Link>
<href>../../21/1256488/1258804.kml</href>
<viewRefreshMode>onRegion</viewRefreshMode>
</Link>
</NetworkLink>
<NetworkLink>
<name>21/1256489/1258804.kml</name>
<Region>
<LatLonAltBox>
<north>33.914446101829327</north>
<south>33.914303644803006</south>
<east>35.690803527832038</east>
<west>35.690631866455078</west>
</LatLonAltBox>
<Lod>
<minLodPixels>128</minLodPixels>
<maxLodPixels>-1</maxLodPixels>
</Lod>
</Region>
<Link>
<href>../../21/1256489/1258804.kml</href>
<viewRefreshMode>onRegion</viewRefreshMode>
</Link>
</NetworkLink>
<NetworkLink>
<name>21/1256488/1258805.kml</name>
<Region>
<LatLonAltBox>
<north>33.914588558617510</north>
<south>33.914446101829327</south>
<east>35.690631866455078</east>
<west>35.690460205078118</west>
</LatLonAltBox>
<Lod>
<minLodPixels>128</minLodPixels>
<maxLodPixels>-1</maxLodPixels>
</Lod>
</Region>
<Link>
<href>../../21/1256488/1258805.kml</href>
<viewRefreshMode>onRegion</viewRefreshMode>
</Link>
</NetworkLink>
<NetworkLink>
<name>21/1256489/1258805.kml</name>
<Region>
<LatLonAltBox>
<north>33.914588558617510</north>
<south>33.914446101829327</south>
<east>35.690803527832038</east>
<west>35.690631866455078</west>
</LatLonAltBox>
<Lod>
<minLodPixels>128</minLodPixels>
<maxLodPixels>-1</maxLodPixels>
</Lod>
</Region>
<Link>
<href>../../21/1256489/1258805.kml</href>
<viewRefreshMode>onRegion</viewRefreshMode>
</Link>
</NetworkLink>

</Folder>

</Document>
</kml>
