<?xml version="1.0" encoding="utf-8"?>
<kml xmlns="http://www.opengis.net/kml/2.2">
<Document>
<name>20/628248/629397.kml</name>
<description></description>
<Style><ListStyle id="hideChildren">
<listItemType>checkHideChildren</listItemType>
</ListStyle>
</Style>
<Folder>
<Region>
<LatLonAltBox>
<north>33.913163980019320</north>
<south>33.912879061442020</south>
<east>35.692176818847663</east>
<west>35.691833496093743</west>
</LatLonAltBox>
<Lod>
<minLodPixels>128</minLodPixels>
<maxLodPixels>-1</maxLodPixels>
</Lod>
</Region>
<GroundOverlay>
<drawOrder>40</drawOrder>
<Icon>
<href>../../20/628248/629397.png</href>
</Icon>
<LatLonBox>
<north>33.913163980019320</north>
<south>33.912879061442020</south>
<east>35.692176818847663</east>
<west>35.691833496093743</west>
</LatLonBox>
</GroundOverlay>
<NetworkLink>
<name>21/1256496/1258794.kml</name>
<Region>
<LatLonAltBox>
<north>33.913021520849760</north>
<south>33.912879061442020</south>
<east>35.692005157470696</east>
<west>35.691833496093743</west>
</LatLonAltBox>
<Lod>
<minLodPixels>128</minLodPixels>
<maxLodPixels>-1</maxLodPixels>
</Lod>
</Region>
<Link>
<href>../../21/1256496/1258794.kml</href>
<viewRefreshMode>onRegion</viewRefreshMode>
</Link>
</NetworkLink>
<NetworkLink>
<name>21/1256497/1258794.kml</name>
<Region>
<LatLonAltBox>
<north>33.913021520849760</north>
<south>33.912879061442020</south>
<east>35.692176818847663</east>
<west>35.692005157470696</west>
</LatLonAltBox>
<Lod>
<minLodPixels>128</minLodPixels>
<maxLodPixels>-1</maxLodPixels>
</Lod>
</Region>
<Link>
<href>../../21/1256497/1258794.kml</href>
<viewRefreshMode>onRegion</viewRefreshMode>
</Link>
</NetworkLink>
<NetworkLink>
<name>21/1256496/1258795.kml</name>
<Region>
<LatLonAltBox>
<north>33.913163980019320</north>
<south>33.913021520849760</south>
<east>35.692005157470696</east>
<west>35.691833496093743</west>
</LatLonAltBox>
<Lod>
<minLodPixels>128</minLodPixels>
<maxLodPixels>-1</maxLodPixels>
</Lod>
</Region>
<Link>
<href>../../21/1256496/1258795.kml</href>
<viewRefreshMode>onRegion</viewRefreshMode>
</Link>
</NetworkLink>
<NetworkLink>
<name>21/1256497/1258795.kml</name>
<Region>
<LatLonAltBox>
<north>33.913163980019320</north>
<south>33.913021520849760</south>
<east>35.692176818847663</east>
<west>35.692005157470696</west>
</LatLonAltBox>
<Lod>
<minLodPixels>128</minLodPixels>
<maxLodPixels>-1</maxLodPixels>
</Lod>
</Region>
<Link>
<href>../../21/1256497/1258795.kml</href>
<viewRefreshMode>onRegion</viewRefreshMode>
</Link>
</NetworkLink>

</Folder>

</Document>
</kml>
