<?xml version="1.0" encoding="utf-8"?>
<kml xmlns="http://www.opengis.net/kml/2.2">
<Document>
<name>21/1256500/1258802.kml</name>
<description></description>
<Style><ListStyle id="hideChildren">
<listItemType>checkHideChildren</listItemType>
</ListStyle>
</Style>
<Folder>
<Region>
<LatLonAltBox>
<north>33.914161187538525</north>
<south>33.914018730035885</south>
<east>35.692691802978509</east>
<west>35.692520141601555</west>
</LatLonAltBox>
<Lod>
<minLodPixels>128</minLodPixels>
<maxLodPixels>-1</maxLodPixels>
</Lod>
</Region>
<GroundOverlay>
<drawOrder>42</drawOrder>
<Icon>
<href>../../21/1256500/1258802.png</href>
</Icon>
<LatLonBox>
<north>33.914161187538525</north>
<south>33.914018730035885</south>
<east>35.692691802978509</east>
<west>35.692520141601555</west>
</LatLonBox>
</GroundOverlay>
<NetworkLink>
<name>22/2513000/2517604.kml</name>
<Region>
<LatLonAltBox>
<north>33.914089958816973</north>
<south>33.914018730035885</south>
<east>35.692605972290032</east>
<west>35.692520141601555</west>
</LatLonAltBox>
<Lod>
<minLodPixels>128</minLodPixels>
<maxLodPixels>-1</maxLodPixels>
</Lod>
</Region>
<Link>
<href>../../22/2513000/2517604.kml</href>
<viewRefreshMode>onRegion</viewRefreshMode>
</Link>
</NetworkLink>
<NetworkLink>
<name>22/2513001/2517604.kml</name>
<Region>
<LatLonAltBox>
<north>33.914089958816973</north>
<south>33.914018730035885</south>
<east>35.692691802978509</east>
<west>35.692605972290032</west>
</LatLonAltBox>
<Lod>
<minLodPixels>128</minLodPixels>
<maxLodPixels>-1</maxLodPixels>
</Lod>
</Region>
<Link>
<href>../../22/2513001/2517604.kml</href>
<viewRefreshMode>onRegion</viewRefreshMode>
</Link>
</NetworkLink>
<NetworkLink>
<name>22/2513000/2517605.kml</name>
<Region>
<LatLonAltBox>
<north>33.914161187538525</north>
<south>33.914089958816973</south>
<east>35.692605972290032</east>
<west>35.692520141601555</west>
</LatLonAltBox>
<Lod>
<minLodPixels>128</minLodPixels>
<maxLodPixels>-1</maxLodPixels>
</Lod>
</Region>
<Link>
<href>../../22/2513000/2517605.kml</href>
<viewRefreshMode>onRegion</viewRefreshMode>
</Link>
</NetworkLink>
<NetworkLink>
<name>22/2513001/2517605.kml</name>
<Region>
<LatLonAltBox>
<north>33.914161187538525</north>
<south>33.914089958816973</south>
<east>35.692691802978509</east>
<west>35.692605972290032</west>
</LatLonAltBox>
<Lod>
<minLodPixels>128</minLodPixels>
<maxLodPixels>-1</maxLodPixels>
</Lod>
</Region>
<Link>
<href>../../22/2513001/2517605.kml</href>
<viewRefreshMode>onRegion</viewRefreshMode>
</Link>
</NetworkLink>

</Folder>

</Document>
</kml>
