<?xml version="1.0" encoding="utf-8"?>
<kml xmlns="http://www.opengis.net/kml/2.2">
<Document>
<name>21/1256493/1258796.kml</name>
<description></description>
<Style><ListStyle id="hideChildren">
<listItemType>checkHideChildren</listItemType>
</ListStyle>
</Style>
<Folder>
<Region>
<LatLonAltBox>
<north>33.913306438950741</north>
<south>33.913163980019320</south>
<east>35.691490173339851</east>
<west>35.691318511962891</west>
</LatLonAltBox>
<Lod>
<minLodPixels>128</minLodPixels>
<maxLodPixels>-1</maxLodPixels>
</Lod>
</Region>
<GroundOverlay>
<drawOrder>42</drawOrder>
<Icon>
<href>../../21/1256493/1258796.png</href>
</Icon>
<LatLonBox>
<north>33.913306438950741</north>
<south>33.913163980019320</south>
<east>35.691490173339851</east>
<west>35.691318511962891</west>
</LatLonBox>
</GroundOverlay>
<NetworkLink>
<name>22/2512986/2517592.kml</name>
<Region>
<LatLonAltBox>
<north>33.913235209514809</north>
<south>33.913163980019320</south>
<east>35.691404342651367</east>
<west>35.691318511962891</west>
</LatLonAltBox>
<Lod>
<minLodPixels>128</minLodPixels>
<maxLodPixels>-1</maxLodPixels>
</Lod>
</Region>
<Link>
<href>../../22/2512986/2517592.kml</href>
<viewRefreshMode>onRegion</viewRefreshMode>
</Link>
</NetworkLink>
<NetworkLink>
<name>22/2512987/2517592.kml</name>
<Region>
<LatLonAltBox>
<north>33.913235209514809</north>
<south>33.913163980019320</south>
<east>35.691490173339851</east>
<west>35.691404342651367</west>
</LatLonAltBox>
<Lod>
<minLodPixels>128</minLodPixels>
<maxLodPixels>-1</maxLodPixels>
</Lod>
</Region>
<Link>
<href>../../22/2512987/2517592.kml</href>
<viewRefreshMode>onRegion</viewRefreshMode>
</Link>
</NetworkLink>
<NetworkLink>
<name>22/2512986/2517593.kml</name>
<Region>
<LatLonAltBox>
<north>33.913306438950741</north>
<south>33.913235209514809</south>
<east>35.691404342651367</east>
<west>35.691318511962891</west>
</LatLonAltBox>
<Lod>
<minLodPixels>128</minLodPixels>
<maxLodPixels>-1</maxLodPixels>
</Lod>
</Region>
<Link>
<href>../../22/2512986/2517593.kml</href>
<viewRefreshMode>onRegion</viewRefreshMode>
</Link>
</NetworkLink>
<NetworkLink>
<name>22/2512987/2517593.kml</name>
<Region>
<LatLonAltBox>
<north>33.913306438950741</north>
<south>33.913235209514809</south>
<east>35.691490173339851</east>
<west>35.691404342651367</west>
</LatLonAltBox>
<Lod>
<minLodPixels>128</minLodPixels>
<maxLodPixels>-1</maxLodPixels>
</Lod>
</Region>
<Link>
<href>../../22/2512987/2517593.kml</href>
<viewRefreshMode>onRegion</viewRefreshMode>
</Link>
</NetworkLink>

</Folder>

</Document>
</kml>
