<?xml version="1.0" encoding="utf-8"?>
<kml xmlns="http://www.opengis.net/kml/2.2">
<Document>
<name>21/1256495/1258803.kml</name>
<description></description>
<Style><ListStyle id="hideChildren">
<listItemType>checkHideChildren</listItemType>
</ListStyle>
</Style>
<Folder>
<Region>
<LatLonAltBox>
<north>33.914303644803006</north>
<south>33.914161187538525</south>
<east>35.691833496093743</east>
<west>35.691661834716811</west>
</LatLonAltBox>
<Lod>
<minLodPixels>128</minLodPixels>
<maxLodPixels>-1</maxLodPixels>
</Lod>
</Region>
<GroundOverlay>
<drawOrder>42</drawOrder>
<Icon>
<href>../../21/1256495/1258803.png</href>
</Icon>
<LatLonBox>
<north>33.914303644803006</north>
<south>33.914161187538525</south>
<east>35.691833496093743</east>
<west>35.691661834716811</west>
</LatLonBox>
</GroundOverlay>
<NetworkLink>
<name>22/2512990/2517606.kml</name>
<Region>
<LatLonAltBox>
<north>33.914232416200534</north>
<south>33.914161187538525</south>
<east>35.691747665405259</east>
<west>35.691661834716811</west>
</LatLonAltBox>
<Lod>
<minLodPixels>128</minLodPixels>
<maxLodPixels>-1</maxLodPixels>
</Lod>
</Region>
<Link>
<href>../../22/2512990/2517606.kml</href>
<viewRefreshMode>onRegion</viewRefreshMode>
</Link>
</NetworkLink>
<NetworkLink>
<name>22/2512991/2517606.kml</name>
<Region>
<LatLonAltBox>
<north>33.914232416200534</north>
<south>33.914161187538525</south>
<east>35.691833496093743</east>
<west>35.691747665405259</west>
</LatLonAltBox>
<Lod>
<minLodPixels>128</minLodPixels>
<maxLodPixels>-1</maxLodPixels>
</Lod>
</Region>
<Link>
<href>../../22/2512991/2517606.kml</href>
<viewRefreshMode>onRegion</viewRefreshMode>
</Link>
</NetworkLink>
<NetworkLink>
<name>22/2512990/2517607.kml</name>
<Region>
<LatLonAltBox>
<north>33.914303644803006</north>
<south>33.914232416200534</south>
<east>35.691747665405259</east>
<west>35.691661834716811</west>
</LatLonAltBox>
<Lod>
<minLodPixels>128</minLodPixels>
<maxLodPixels>-1</maxLodPixels>
</Lod>
</Region>
<Link>
<href>../../22/2512990/2517607.kml</href>
<viewRefreshMode>onRegion</viewRefreshMode>
</Link>
</NetworkLink>
<NetworkLink>
<name>22/2512991/2517607.kml</name>
<Region>
<LatLonAltBox>
<north>33.914303644803006</north>
<south>33.914232416200534</south>
<east>35.691833496093743</east>
<west>35.691747665405259</west>
</LatLonAltBox>
<Lod>
<minLodPixels>128</minLodPixels>
<maxLodPixels>-1</maxLodPixels>
</Lod>
</Region>
<Link>
<href>../../22/2512991/2517607.kml</href>
<viewRefreshMode>onRegion</viewRefreshMode>
</Link>
</NetworkLink>

</Folder>

</Document>
</kml>
