<?xml version="1.0" encoding="utf-8"?>
<kml xmlns="http://www.opengis.net/kml/2.2">
<Document>
<name>21/1256489/1258791.kml</name>
<description></description>
<Style><ListStyle id="hideChildren">
<listItemType>checkHideChildren</listItemType>
</ListStyle>
</Style>
<Folder>
<Region>
<LatLonAltBox>
<north>33.912594141912230</north>
<south>33.912451681790110</south>
<east>35.690803527832038</east>
<west>35.690631866455078</west>
</LatLonAltBox>
<Lod>
<minLodPixels>128</minLodPixels>
<maxLodPixels>-1</maxLodPixels>
</Lod>
</Region>
<GroundOverlay>
<drawOrder>42</drawOrder>
<Icon>
<href>../../21/1256489/1258791.png</href>
</Icon>
<LatLonBox>
<north>33.912594141912230</north>
<south>33.912451681790110</south>
<east>35.690803527832038</east>
<west>35.690631866455078</west>
</LatLonBox>
</GroundOverlay>
<NetworkLink>
<name>22/2512978/2517582.kml</name>
<Region>
<LatLonAltBox>
<north>33.912522911880927</north>
<south>33.912451681790110</south>
<east>35.690717697143555</east>
<west>35.690631866455078</west>
</LatLonAltBox>
<Lod>
<minLodPixels>128</minLodPixels>
<maxLodPixels>-1</maxLodPixels>
</Lod>
</Region>
<Link>
<href>../../22/2512978/2517582.kml</href>
<viewRefreshMode>onRegion</viewRefreshMode>
</Link>
</NetworkLink>
<NetworkLink>
<name>22/2512979/2517582.kml</name>
<Region>
<LatLonAltBox>
<north>33.912522911880927</north>
<south>33.912451681790110</south>
<east>35.690803527832038</east>
<west>35.690717697143555</west>
</LatLonAltBox>
<Lod>
<minLodPixels>128</minLodPixels>
<maxLodPixels>-1</maxLodPixels>
</Lod>
</Region>
<Link>
<href>../../22/2512979/2517582.kml</href>
<viewRefreshMode>onRegion</viewRefreshMode>
</Link>
</NetworkLink>
<NetworkLink>
<name>22/2512978/2517583.kml</name>
<Region>
<LatLonAltBox>
<north>33.912594141912230</north>
<south>33.912522911880927</south>
<east>35.690717697143555</east>
<west>35.690631866455078</west>
</LatLonAltBox>
<Lod>
<minLodPixels>128</minLodPixels>
<maxLodPixels>-1</maxLodPixels>
</Lod>
</Region>
<Link>
<href>../../22/2512978/2517583.kml</href>
<viewRefreshMode>onRegion</viewRefreshMode>
</Link>
</NetworkLink>
<NetworkLink>
<name>22/2512979/2517583.kml</name>
<Region>
<LatLonAltBox>
<north>33.912594141912230</north>
<south>33.912522911880927</south>
<east>35.690803527832038</east>
<west>35.690717697143555</west>
</LatLonAltBox>
<Lod>
<minLodPixels>128</minLodPixels>
<maxLodPixels>-1</maxLodPixels>
</Lod>
</Region>
<Link>
<href>../../22/2512979/2517583.kml</href>
<viewRefreshMode>onRegion</viewRefreshMode>
</Link>
</NetworkLink>

</Folder>

</Document>
</kml>
