<?xml version="1.0" encoding="utf-8"?>
<kml xmlns="http://www.opengis.net/kml/2.2">
<Document>
<name>21/1256497/1258805.kml</name>
<description></description>
<Style><ListStyle id="hideChildren">
<listItemType>checkHideChildren</listItemType>
</ListStyle>
</Style>
<Folder>
<Region>
<LatLonAltBox>
<north>33.914588558617510</north>
<south>33.914446101829327</south>
<east>35.692176818847663</east>
<west>35.692005157470696</west>
</LatLonAltBox>
<Lod>
<minLodPixels>128</minLodPixels>
<maxLodPixels>-1</maxLodPixels>
</Lod>
</Region>
<GroundOverlay>
<drawOrder>42</drawOrder>
<Icon>
<href>../../21/1256497/1258805.png</href>
</Icon>
<LatLonBox>
<north>33.914588558617510</north>
<south>33.914446101829327</south>
<east>35.692176818847663</east>
<west>35.692005157470696</west>
</LatLonBox>
</GroundOverlay>
<NetworkLink>
<name>22/2512994/2517610.kml</name>
<Region>
<LatLonAltBox>
<north>33.914517330253176</north>
<south>33.914446101829327</south>
<east>35.692090988159180</east>
<west>35.692005157470696</west>
</LatLonAltBox>
<Lod>
<minLodPixels>128</minLodPixels>
<maxLodPixels>-1</maxLodPixels>
</Lod>
</Region>
<Link>
<href>../../22/2512994/2517610.kml</href>
<viewRefreshMode>onRegion</viewRefreshMode>
</Link>
</NetworkLink>
<NetworkLink>
<name>22/2512995/2517610.kml</name>
<Region>
<LatLonAltBox>
<north>33.914517330253176</north>
<south>33.914446101829327</south>
<east>35.692176818847663</east>
<west>35.692090988159180</west>
</LatLonAltBox>
<Lod>
<minLodPixels>128</minLodPixels>
<maxLodPixels>-1</maxLodPixels>
</Lod>
</Region>
<Link>
<href>../../22/2512995/2517610.kml</href>
<viewRefreshMode>onRegion</viewRefreshMode>
</Link>
</NetworkLink>
<NetworkLink>
<name>22/2512994/2517611.kml</name>
<Region>
<LatLonAltBox>
<north>33.914588558617510</north>
<south>33.914517330253176</south>
<east>35.692090988159180</east>
<west>35.692005157470696</west>
</LatLonAltBox>
<Lod>
<minLodPixels>128</minLodPixels>
<maxLodPixels>-1</maxLodPixels>
</Lod>
</Region>
<Link>
<href>../../22/2512994/2517611.kml</href>
<viewRefreshMode>onRegion</viewRefreshMode>
</Link>
</NetworkLink>
<NetworkLink>
<name>22/2512995/2517611.kml</name>
<Region>
<LatLonAltBox>
<north>33.914588558617510</north>
<south>33.914517330253176</south>
<east>35.692176818847663</east>
<west>35.692090988159180</west>
</LatLonAltBox>
<Lod>
<minLodPixels>128</minLodPixels>
<maxLodPixels>-1</maxLodPixels>
</Lod>
</Region>
<Link>
<href>../../22/2512995/2517611.kml</href>
<viewRefreshMode>onRegion</viewRefreshMode>
</Link>
</NetworkLink>

</Folder>

</Document>
</kml>
