<?xml version="1.0" encoding="utf-8"?>
<kml xmlns="http://www.opengis.net/kml/2.2">
<Document>
<name>21/1256497/1258800.kml</name>
<description></description>
<Style><ListStyle id="hideChildren">
<listItemType>checkHideChildren</listItemType>
</ListStyle>
</Style>
<Folder>
<Region>
<LatLonAltBox>
<north>33.913876272295134</north>
<south>33.913733814316252</south>
<east>35.692176818847663</east>
<west>35.692005157470696</west>
</LatLonAltBox>
<Lod>
<minLodPixels>128</minLodPixels>
<maxLodPixels>-1</maxLodPixels>
</Lod>
</Region>
<GroundOverlay>
<drawOrder>42</drawOrder>
<Icon>
<href>../../21/1256497/1258800.png</href>
</Icon>
<LatLonBox>
<north>33.913876272295134</north>
<south>33.913733814316252</south>
<east>35.692176818847663</east>
<west>35.692005157470696</west>
</LatLonBox>
</GroundOverlay>
<NetworkLink>
<name>22/2512994/2517600.kml</name>
<Region>
<LatLonAltBox>
<north>33.913805043335472</north>
<south>33.913733814316252</south>
<east>35.692090988159180</east>
<west>35.692005157470696</west>
</LatLonAltBox>
<Lod>
<minLodPixels>128</minLodPixels>
<maxLodPixels>-1</maxLodPixels>
</Lod>
</Region>
<Link>
<href>../../22/2512994/2517600.kml</href>
<viewRefreshMode>onRegion</viewRefreshMode>
</Link>
</NetworkLink>
<NetworkLink>
<name>22/2512995/2517600.kml</name>
<Region>
<LatLonAltBox>
<north>33.913805043335472</north>
<south>33.913733814316252</south>
<east>35.692176818847663</east>
<west>35.692090988159180</west>
</LatLonAltBox>
<Lod>
<minLodPixels>128</minLodPixels>
<maxLodPixels>-1</maxLodPixels>
</Lod>
</Region>
<Link>
<href>../../22/2512995/2517600.kml</href>
<viewRefreshMode>onRegion</viewRefreshMode>
</Link>
</NetworkLink>
<NetworkLink>
<name>22/2512994/2517601.kml</name>
<Region>
<LatLonAltBox>
<north>33.913876272295134</north>
<south>33.913805043335472</south>
<east>35.692090988159180</east>
<west>35.692005157470696</west>
</LatLonAltBox>
<Lod>
<minLodPixels>128</minLodPixels>
<maxLodPixels>-1</maxLodPixels>
</Lod>
</Region>
<Link>
<href>../../22/2512994/2517601.kml</href>
<viewRefreshMode>onRegion</viewRefreshMode>
</Link>
</NetworkLink>
<NetworkLink>
<name>22/2512995/2517601.kml</name>
<Region>
<LatLonAltBox>
<north>33.913876272295134</north>
<south>33.913805043335472</south>
<east>35.692176818847663</east>
<west>35.692090988159180</west>
</LatLonAltBox>
<Lod>
<minLodPixels>128</minLodPixels>
<maxLodPixels>-1</maxLodPixels>
</Lod>
</Region>
<Link>
<href>../../22/2512995/2517601.kml</href>
<viewRefreshMode>onRegion</viewRefreshMode>
</Link>
</NetworkLink>

</Folder>

</Document>
</kml>
