<?xml version="1.0" encoding="utf-8"?>
<kml xmlns="http://www.opengis.net/kml/2.2">
<Document>
<name>18/157061/157350.kml</name>
<description></description>
<Style><ListStyle id="hideChildren">
<listItemType>checkHideChildren</listItemType>
</ListStyle>
</Style>
<Folder>
<Region>
<LatLonAltBox>
<north>33.914873471479510</north>
<south>33.913733814316252</south>
<east>35.691833496093743</east>
<west>35.690460205078118</west>
</LatLonAltBox>
<Lod>
<minLodPixels>128</minLodPixels>
<maxLodPixels>-1</maxLodPixels>
</Lod>
</Region>
<GroundOverlay>
<drawOrder>36</drawOrder>
<Icon>
<href>../../18/157061/157350.png</href>
</Icon>
<LatLonBox>
<north>33.914873471479510</north>
<south>33.913733814316252</south>
<east>35.691833496093743</east>
<west>35.690460205078118</west>
</LatLonBox>
</GroundOverlay>
<NetworkLink>
<name>19/314122/314700.kml</name>
<Region>
<LatLonAltBox>
<north>33.914303644803006</north>
<south>33.913733814316252</south>
<east>35.691146850585930</east>
<west>35.690460205078118</west>
</LatLonAltBox>
<Lod>
<minLodPixels>128</minLodPixels>
<maxLodPixels>-1</maxLodPixels>
</Lod>
</Region>
<Link>
<href>../../19/314122/314700.kml</href>
<viewRefreshMode>onRegion</viewRefreshMode>
</Link>
</NetworkLink>
<NetworkLink>
<name>19/314123/314700.kml</name>
<Region>
<LatLonAltBox>
<north>33.914303644803006</north>
<south>33.913733814316252</south>
<east>35.691833496093743</east>
<west>35.691146850585930</west>
</LatLonAltBox>
<Lod>
<minLodPixels>128</minLodPixels>
<maxLodPixels>-1</maxLodPixels>
</Lod>
</Region>
<Link>
<href>../../19/314123/314700.kml</href>
<viewRefreshMode>onRegion</viewRefreshMode>
</Link>
</NetworkLink>
<NetworkLink>
<name>19/314122/314701.kml</name>
<Region>
<LatLonAltBox>
<north>33.914873471479510</north>
<south>33.914303644803006</south>
<east>35.691146850585930</east>
<west>35.690460205078118</west>
</LatLonAltBox>
<Lod>
<minLodPixels>128</minLodPixels>
<maxLodPixels>-1</maxLodPixels>
</Lod>
</Region>
<Link>
<href>../../19/314122/314701.kml</href>
<viewRefreshMode>onRegion</viewRefreshMode>
</Link>
</NetworkLink>
<NetworkLink>
<name>19/314123/314701.kml</name>
<Region>
<LatLonAltBox>
<north>33.914873471479510</north>
<south>33.914303644803006</south>
<east>35.691833496093743</east>
<west>35.691146850585930</west>
</LatLonAltBox>
<Lod>
<minLodPixels>128</minLodPixels>
<maxLodPixels>-1</maxLodPixels>
</Lod>
</Region>
<Link>
<href>../../19/314123/314701.kml</href>
<viewRefreshMode>onRegion</viewRefreshMode>
</Link>
</NetworkLink>

</Folder>

</Document>
</kml>
