<?xml version="1.0" encoding="utf-8"?>
<kml xmlns="http://www.opengis.net/kml/2.2">
<Document>
<name>19/314121/314701.kml</name>
<description></description>
<Style><ListStyle id="hideChildren">
<listItemType>checkHideChildren</listItemType>
</ListStyle>
</Style>
<Folder>
<Region>
<LatLonAltBox>
<north>33.914873471479510</north>
<south>33.914303644803006</south>
<east>35.690460205078118</east>
<west>35.689773559570305</west>
</LatLonAltBox>
<Lod>
<minLodPixels>128</minLodPixels>
<maxLodPixels>-1</maxLodPixels>
</Lod>
</Region>
<GroundOverlay>
<drawOrder>38</drawOrder>
<Icon>
<href>../../19/314121/314701.png</href>
</Icon>
<LatLonBox>
<north>33.914873471479510</north>
<south>33.914303644803006</south>
<east>35.690460205078118</east>
<west>35.689773559570305</west>
</LatLonBox>
</GroundOverlay>
<NetworkLink>
<name>20/628242/629402.kml</name>
<Region>
<LatLonAltBox>
<north>33.914588558617510</north>
<south>33.914303644803006</south>
<east>35.690116882324226</east>
<west>35.689773559570305</west>
</LatLonAltBox>
<Lod>
<minLodPixels>128</minLodPixels>
<maxLodPixels>-1</maxLodPixels>
</Lod>
</Region>
<Link>
<href>../../20/628242/629402.kml</href>
<viewRefreshMode>onRegion</viewRefreshMode>
</Link>
</NetworkLink>
<NetworkLink>
<name>20/628243/629402.kml</name>
<Region>
<LatLonAltBox>
<north>33.914588558617510</north>
<south>33.914303644803006</south>
<east>35.690460205078118</east>
<west>35.690116882324226</west>
</LatLonAltBox>
<Lod>
<minLodPixels>128</minLodPixels>
<maxLodPixels>-1</maxLodPixels>
</Lod>
</Region>
<Link>
<href>../../20/628243/629402.kml</href>
<viewRefreshMode>onRegion</viewRefreshMode>
</Link>
</NetworkLink>

</Folder>

</Document>
</kml>
