<?xml version="1.0" encoding="utf-8"?>
<kml xmlns="http://www.opengis.net/kml/2.2">
<Document>
<name>22/2512974/2517594.kml</name>
<description></description>
<Style><ListStyle id="hideChildren">
<listItemType>checkHideChildren</listItemType>
</ListStyle>
</Style>
<Folder>
<Region>
<LatLonAltBox>
<north>33.913377668327179</north>
<south>33.913306438950741</south>
<east>35.690374374389634</east>
<west>35.690288543701186</west>
</LatLonAltBox>
<Lod>
<minLodPixels>128</minLodPixels>
<maxLodPixels>-1</maxLodPixels>
</Lod>
</Region>
<GroundOverlay>
<drawOrder>44</drawOrder>
<Icon>
<href>../../22/2512974/2517594.png</href>
</Icon>
<LatLonBox>
<north>33.913377668327179</north>
<south>33.913306438950741</south>
<east>35.690374374389634</east>
<west>35.690288543701186</west>
</LatLonBox>
</GroundOverlay>

</Folder>

</Document>
</kml>
