<?xml version="1.0" encoding="utf-8"?>
<kml xmlns="http://www.opengis.net/kml/2.2">
<Document>
<name>22/2512992/2517588.kml</name>
<description></description>
<Style><ListStyle id="hideChildren">
<listItemType>checkHideChildren</listItemType>
</ListStyle>
</Style>
<Folder>
<Region>
<LatLonAltBox>
<north>33.912950291175648</north>
<south>33.912879061442020</south>
<east>35.691919326782219</east>
<west>35.691833496093743</west>
</LatLonAltBox>
<Lod>
<minLodPixels>128</minLodPixels>
<maxLodPixels>-1</maxLodPixels>
</Lod>
</Region>
<GroundOverlay>
<drawOrder>44</drawOrder>
<Icon>
<href>../../22/2512992/2517588.png</href>
</Icon>
<LatLonBox>
<north>33.912950291175648</north>
<south>33.912879061442020</south>
<east>35.691919326782219</east>
<west>35.691833496093743</west>
</LatLonBox>
</GroundOverlay>

</Folder>

</Document>
</kml>
