<?xml version="1.0" encoding="utf-8"?>
<kml xmlns="http://www.opengis.net/kml/2.2">
<Document>
<name>22/2512972/2517596.kml</name>
<description></description>
<Style><ListStyle id="hideChildren">
<listItemType>checkHideChildren</listItemType>
</ListStyle>
</Style>
<Folder>
<Region>
<LatLonAltBox>
<north>33.913520126901410</north>
<south>33.913448897644052</south>
<east>35.690202713012702</east>
<west>35.690116882324226</west>
</LatLonAltBox>
<Lod>
<minLodPixels>128</minLodPixels>
<maxLodPixels>-1</maxLodPixels>
</Lod>
</Region>
<GroundOverlay>
<drawOrder>44</drawOrder>
<Icon>
<href>../../22/2512972/2517596.png</href>
</Icon>
<LatLonBox>
<north>33.913520126901410</north>
<south>33.913448897644052</south>
<east>35.690202713012702</east>
<west>35.690116882324226</west>
</LatLonBox>
</GroundOverlay>

</Folder>

</Document>
</kml>
