<?xml version="1.0" encoding="utf-8"?>
<kml xmlns="http://www.opengis.net/kml/2.2">
<Document>
<name>20/628251/629395.kml</name>
<description></description>
<Style><ListStyle id="hideChildren">
<listItemType>checkHideChildren</listItemType>
</ListStyle>
</Style>
<Folder>
<Region>
<LatLonAltBox>
<north>33.912594141912230</north>
<south>33.912309221429858</south>
<east>35.693206787109368</east>
<west>35.692863464355476</west>
</LatLonAltBox>
<Lod>
<minLodPixels>128</minLodPixels>
<maxLodPixels>-1</maxLodPixels>
</Lod>
</Region>
<GroundOverlay>
<drawOrder>40</drawOrder>
<Icon>
<href>../../20/628251/629395.png</href>
</Icon>
<LatLonBox>
<north>33.912594141912230</north>
<south>33.912309221429858</south>
<east>35.693206787109368</east>
<west>35.692863464355476</west>
</LatLonBox>
</GroundOverlay>
<NetworkLink>
<name>21/1256502/1258790.kml</name>
<Region>
<LatLonAltBox>
<north>33.912451681790110</north>
<south>33.912309221429858</south>
<east>35.693035125732436</east>
<west>35.692863464355476</west>
</LatLonAltBox>
<Lod>
<minLodPixels>128</minLodPixels>
<maxLodPixels>-1</maxLodPixels>
</Lod>
</Region>
<Link>
<href>../../21/1256502/1258790.kml</href>
<viewRefreshMode>onRegion</viewRefreshMode>
</Link>
</NetworkLink>
<NetworkLink>
<name>21/1256502/1258791.kml</name>
<Region>
<LatLonAltBox>
<north>33.912594141912230</north>
<south>33.912451681790110</south>
<east>35.693035125732436</east>
<west>35.692863464355476</west>
</LatLonAltBox>
<Lod>
<minLodPixels>128</minLodPixels>
<maxLodPixels>-1</maxLodPixels>
</Lod>
</Region>
<Link>
<href>../../21/1256502/1258791.kml</href>
<viewRefreshMode>onRegion</viewRefreshMode>
</Link>
</NetworkLink>

</Folder>

</Document>
</kml>
