<?xml version="1.0" encoding="utf-8"?>
<kml xmlns="http://www.opengis.net/kml/2.2">
<Document>
<name>17/78530/78675.kml</name>
<description></description>
<Style><ListStyle id="hideChildren">
<listItemType>checkHideChildren</listItemType>
</ListStyle>
</Style>
<Folder>
<Region>
<LatLonAltBox>
<north>33.916013113401696</north>
<south>33.913733814316252</south>
<east>35.691833496093743</east>
<west>35.689086914062493</west>
</LatLonAltBox>
<Lod>
<minLodPixels>128</minLodPixels>
<maxLodPixels>-1</maxLodPixels>
</Lod>
</Region>
<GroundOverlay>
<drawOrder>34</drawOrder>
<Icon>
<href>../../17/78530/78675.png</href>
</Icon>
<LatLonBox>
<north>33.916013113401696</north>
<south>33.913733814316252</south>
<east>35.691833496093743</east>
<west>35.689086914062493</west>
</LatLonBox>
</GroundOverlay>
<NetworkLink>
<name>18/157060/157350.kml</name>
<Region>
<LatLonAltBox>
<north>33.914873471479510</north>
<south>33.913733814316252</south>
<east>35.690460205078118</east>
<west>35.689086914062493</west>
</LatLonAltBox>
<Lod>
<minLodPixels>128</minLodPixels>
<maxLodPixels>-1</maxLodPixels>
</Lod>
</Region>
<Link>
<href>../../18/157060/157350.kml</href>
<viewRefreshMode>onRegion</viewRefreshMode>
</Link>
</NetworkLink>
<NetworkLink>
<name>18/157061/157350.kml</name>
<Region>
<LatLonAltBox>
<north>33.914873471479510</north>
<south>33.913733814316252</south>
<east>35.691833496093743</east>
<west>35.690460205078118</west>
</LatLonAltBox>
<Lod>
<minLodPixels>128</minLodPixels>
<maxLodPixels>-1</maxLodPixels>
</Lod>
</Region>
<Link>
<href>../../18/157061/157350.kml</href>
<viewRefreshMode>onRegion</viewRefreshMode>
</Link>
</NetworkLink>

</Folder>

</Document>
</kml>
