<?xml version="1.0" encoding="utf-8"?>
<kml xmlns="http://www.opengis.net/kml/2.2">
<Document>
<name>20/628243/629396.kml</name>
<description></description>
<Style><ListStyle id="hideChildren">
<listItemType>checkHideChildren</listItemType>
</ListStyle>
</Style>
<Folder>
<Region>
<LatLonAltBox>
<north>33.912879061442020</north>
<south>33.912594141912230</south>
<east>35.690460205078118</east>
<west>35.690116882324226</west>
</LatLonAltBox>
<Lod>
<minLodPixels>128</minLodPixels>
<maxLodPixels>-1</maxLodPixels>
</Lod>
</Region>
<GroundOverlay>
<drawOrder>40</drawOrder>
<Icon>
<href>../../20/628243/629396.png</href>
</Icon>
<LatLonBox>
<north>33.912879061442020</north>
<south>33.912594141912230</south>
<east>35.690460205078118</east>
<west>35.690116882324226</west>
</LatLonBox>
</GroundOverlay>
<NetworkLink>
<name>21/1256486/1258792.kml</name>
<Region>
<LatLonAltBox>
<north>33.912736601796169</north>
<south>33.912594141912230</south>
<east>35.690288543701186</east>
<west>35.690116882324226</west>
</LatLonAltBox>
<Lod>
<minLodPixels>128</minLodPixels>
<maxLodPixels>-1</maxLodPixels>
</Lod>
</Region>
<Link>
<href>../../21/1256486/1258792.kml</href>
<viewRefreshMode>onRegion</viewRefreshMode>
</Link>
</NetworkLink>
<NetworkLink>
<name>21/1256487/1258792.kml</name>
<Region>
<LatLonAltBox>
<north>33.912736601796169</north>
<south>33.912594141912230</south>
<east>35.690460205078118</east>
<west>35.690288543701186</west>
</LatLonAltBox>
<Lod>
<minLodPixels>128</minLodPixels>
<maxLodPixels>-1</maxLodPixels>
</Lod>
</Region>
<Link>
<href>../../21/1256487/1258792.kml</href>
<viewRefreshMode>onRegion</viewRefreshMode>
</Link>
</NetworkLink>
<NetworkLink>
<name>21/1256486/1258793.kml</name>
<Region>
<LatLonAltBox>
<north>33.912879061442020</north>
<south>33.912736601796169</south>
<east>35.690288543701186</east>
<west>35.690116882324226</west>
</LatLonAltBox>
<Lod>
<minLodPixels>128</minLodPixels>
<maxLodPixels>-1</maxLodPixels>
</Lod>
</Region>
<Link>
<href>../../21/1256486/1258793.kml</href>
<viewRefreshMode>onRegion</viewRefreshMode>
</Link>
</NetworkLink>
<NetworkLink>
<name>21/1256487/1258793.kml</name>
<Region>
<LatLonAltBox>
<north>33.912879061442020</north>
<south>33.912736601796169</south>
<east>35.690460205078118</east>
<west>35.690288543701186</west>
</LatLonAltBox>
<Lod>
<minLodPixels>128</minLodPixels>
<maxLodPixels>-1</maxLodPixels>
</Lod>
</Region>
<Link>
<href>../../21/1256487/1258793.kml</href>
<viewRefreshMode>onRegion</viewRefreshMode>
</Link>
</NetworkLink>

</Folder>

</Document>
</kml>
